start=new Date('2023-01-29T00:00:00.000Z').valueOf();
sats=[{"BSTAR":"-0.00000900400000","ELEMENT_SET_NO":"999","COUNTRY_CODE":"US","MEAN_MOTION":"15.06399709","DECAY_DATE":null,"EPHEMERIS_TYPE":"0","FILE":"3764201","ECCENTRICITY":"0.00012460","MEAN_MOTION_DOT":"-0.00000415","SITE":"AFETR","EPOCH":"2023-01-28T16:27:12.630240","OBJECT_TYPE":"PAYLOAD","REV_AT_EPOCH":"15414","CENTER_NAME":"EARTH","TLE_LINE2":"2 45563  53.0563 146.3343 0001246  96.2299 263.8831 15.06399709154146","OBJECT_NAME":"STARLINK-1355","SEMIMAJOR_AXIS":"6925.349","TIME_SYSTEM":"UTC","RCS_SIZE":"LARGE","PERIOD":"95.592","OBJECT_ID":"2020-025AJ","CLASSIFICATION_TYPE":"U","INCLINATION":"53.0563","MEAN_MOTION_DDOT":"0.0000000000000","APOAPSIS":"548.077","TLE_LINE1":"1 45563U 20025AJ  23028.68556285 -.00000415  00000-0 -90040-5 0  9992","RA_OF_ASC_NODE":"146.3343","GP_ID":"223909769","LAUNCH_DATE":"2020-04-22","PERIAPSIS":"546.352","REF_FRAME":"TEME","NORAD_CAT_ID":"45563","MEAN_ELEMENT_THEORY":"SGP4","ARG_OF_PERICENTER":"96.2299","MEAN_ANOMALY":"263.8831"},{"BSTAR":"-0.00002063900000","COUNTRY_CODE":"US","ELEMENT_SET_NO":"999","MEAN_MOTION":"15.06409194","DECAY_DATE":null,"EPHEMERIS_TYPE":"0","FILE":"3764201","ECCENTRICITY":"0.00013080","MEAN_MOTION_DOT":"-0.00000589","SITE":"AFETR","EPOCH":"2023-01-28T17:57:26.023968","OBJECT_TYPE":"PAYLOAD","REV_AT_EPOCH":"15415","CENTER_NAME":"EARTH","TLE_LINE2":"2 45564  53.0532 146.0585 0001308 106.2435 253.8697 15.06409194154151","OBJECT_NAME":"STARLINK-1356","SEMIMAJOR_AXIS":"6925.320","TIME_SYSTEM":"UTC","RCS_SIZE":"LARGE","PERIOD":"95.592","CLASSIFICATION_TYPE":"U","OBJECT_ID":"2020-025AK","INCLINATION":"53.0532","MEAN_MOTION_DDOT":"0.0000000000000","TLE_LINE1":"1 45564U 20025AK  23028.74821787 -.00000589  00000-0 -20639-4 0  9990","APOAPSIS":"548.091","RA_OF_ASC_NODE":"146.0585","GP_ID":"223908534","LAUNCH_DATE":"2020-04-22","PERIAPSIS":"546.280","REF_FRAME":"TEME","NORAD_CAT_ID":"45564","MEAN_ELEMENT_THEORY":"SGP4","MEAN_ANOMALY":"253.8697","ARG_OF_PERICENTER":"106.2435"},{"TIME_SYSTEM":"UTC","SEMIMAJOR_AXIS":"6925.350","PERIOD":"95.592","RCS_SIZE":"LARGE","CLASSIFICATION_TYPE":"U","OBJECT_ID":"2020-025AL","INCLINATION":"53.0540","MEAN_MOTION_DDOT":"0.0000000000000","APOAPSIS":"548.033","TLE_LINE1":"1 45565U 20025AL  23028.60815767  .00000364  00000-0  43341-4 0  9991","GP_ID":"223908783","RA_OF_ASC_NODE":"146.6955","LAUNCH_DATE":"2020-04-22","NORAD_CAT_ID":"45565","REF_FRAME":"TEME","PERIAPSIS":"546.398","MEAN_ELEMENT_THEORY":"SGP4","ARG_OF_PERICENTER":"79.6049","MEAN_ANOMALY":"280.5072","BSTAR":"0.00004334100000","ELEMENT_SET_NO":"999","COUNTRY_CODE":"US","DECAY_DATE":null,"MEAN_MOTION":"15.06399373","EPHEMERIS_TYPE":"0","FILE":"3764201","ECCENTRICITY":"0.00011800","SITE":"AFETR","MEAN_MOTION_DOT":"0.00000364","EPOCH":"2023-01-28T14:35:44.822688","REV_AT_EPOCH":"15413","OBJECT_TYPE":"PAYLOAD","TLE_LINE2":"2 45565  53.0540 146.6955 0001180  79.6049 280.5072 15.06399373154139","CENTER_NAME":"EARTH","OBJECT_NAME":"STARLINK-1357"},{"TLE_LINE2":"2 45566  53.0527 145.7258 0001165 100.0305 260.0816 15.06406182154167","CENTER_NAME":"EARTH","OBJECT_NAME":"STARLINK-1358","EPOCH":"2023-01-28T19:43:35.586624","REV_AT_EPOCH":"15416","OBJECT_TYPE":"PAYLOAD","SITE":"AFETR","MEAN_MOTION_DOT":"0.00002933","EPHEMERIS_TYPE":"0","FILE":"3764201","ECCENTRICITY":"0.00011650","DECAY_DATE":null,"MEAN_MOTION":"15.06406182","BSTAR":"0.00021570000000","COUNTRY_CODE":"US","ELEMENT_SET_NO":"999","ARG_OF_PERICENTER":"100.0305","MEAN_ANOMALY":"260.0816","NORAD_CAT_ID":"45566","REF_FRAME":"TEME","PERIAPSIS":"546.388","MEAN_ELEMENT_THEORY":"SGP4","LAUNCH_DATE":"2020-04-22","GP_ID":"223909531","RA_OF_ASC_NODE":"145.7258","MEAN_MOTION_DDOT":"0.0000000000000","APOAPSIS":"548.001","TLE_LINE1":"1 45566U 20025AM  23028.82193966  .00002933  00000-0  21570-3 0  9999","OBJECT_ID":"2020-025AM","CLASSIFICATION_TYPE":"U","INCLINATION":"53.0527","TIME_SYSTEM":"UTC","SEMIMAJOR_AXIS":"6925.330","PERIOD":"95.592","RCS_SIZE":"LARGE"},{"CLASSIFICATION_TYPE":"U","OBJECT_ID":"2020-025AN","INCLINATION":"53.0554","MEAN_MOTION_DDOT":"0.0000000000000","TLE_LINE1":"1 45567U 20025AN  23028.76665185  .00001474  00000-0  11780-3 0  9991","APOAPSIS":"548.019","TIME_SYSTEM":"UTC","SEMIMAJOR_AXIS":"6925.346","PERIOD":"95.592","RCS_SIZE":"LARGE","NORAD_CAT_ID":"45567","REF_FRAME":"TEME","PERIAPSIS":"546.404","MEAN_ELEMENT_THEORY":"SGP4","MEAN_ANOMALY":"268.2592","ARG_OF_PERICENTER":"91.8530","GP_ID":"223909270","RA_OF_ASC_NODE":"145.9696","LAUNCH_DATE":"2020-04-22","BSTAR":"0.00011780000000","ELEMENT_SET_NO":"999","COUNTRY_CODE":"US","DECAY_DATE":null,"MEAN_MOTION":"15.06400720","EPOCH":"2023-01-28T18:23:58.719840","REV_AT_EPOCH":"15416","OBJECT_TYPE":"PAYLOAD","CENTER_NAME":"EARTH","TLE_LINE2":"2 45567  53.0554 145.9696 0001166  91.8530 268.2592 15.06400720154167","OBJECT_NAME":"STARLINK-1361","FILE":"3764201","EPHEMERIS_TYPE":"0","ECCENTRICITY":"0.00011660","SITE":"AFETR","MEAN_MOTION_DOT":"0.00001474"},{"DECAY_DATE":null,"MEAN_MOTION":"15.06401932","COUNTRY_CODE":"US","ELEMENT_SET_NO":"999","BSTAR":"0.00002727000000","OBJECT_NAME":"STARLINK-1363","CENTER_NAME":"EARTH","TLE_LINE2":"2 45568  53.0530 146.7563 0001144  85.5414 274.5705 15.06401932154130","REV_AT_EPOCH":"15413","OBJECT_TYPE":"PAYLOAD","EPOCH":"2023-01-28T15:34:10.588224","SITE":"AFETR","MEAN_MOTION_DOT":"0.00000125","ECCENTRICITY":"0.00011440","FILE":"3764201","EPHEMERIS_TYPE":"0","APOAPSIS":"548.000","TLE_LINE1":"1 45568U 20025AP  23028.64873366  .00000125  00000-0  27270-4 0  9995","MEAN_MOTION_DDOT":"0.0000000000000","INCLINATION":"53.0530","CLASSIFICATION_TYPE":"U","OBJECT_ID":"2020-025AP","PERIOD":"95.592","RCS_SIZE":"LARGE","TIME_SYSTEM":"UTC","SEMIMAJOR_AXIS":"6925.343","ARG_OF_PERICENTER":"85.5414","MEAN_ANOMALY":"274.5705","MEAN_ELEMENT_THEORY":"SGP4","NORAD_CAT_ID":"45568","PERIAPSIS":"546.415","REF_FRAME":"TEME","LAUNCH_DATE":"2020-04-22","GP_ID":"223908035","RA_OF_ASC_NODE":"146.7563"},{"EPOCH":"2023-01-28T15:18:12.358656","OBJECT_TYPE":"PAYLOAD","REV_AT_EPOCH":"15413","CENTER_NAME":"EARTH","TLE_LINE2":"2 45569  53.0522 146.5665 0001613  79.6406 280.4765 15.06405005154136","OBJECT_NAME":"STARLINK-1366","EPHEMERIS_TYPE":"0","FILE":"3764201","ECCENTRICITY":"0.00016130","MEAN_MOTION_DOT":"0.00001787","SITE":"AFETR","BSTAR":"0.00013883000000","COUNTRY_CODE":"US","ELEMENT_SET_NO":"999","MEAN_MOTION":"15.06405005","DECAY_DATE":null,"PERIAPSIS":"546.081","REF_FRAME":"TEME","NORAD_CAT_ID":"45569","MEAN_ELEMENT_THEORY":"SGP4","ARG_OF_PERICENTER":"79.6406","MEAN_ANOMALY":"280.4765","RA_OF_ASC_NODE":"146.5665","GP_ID":"223908285","LAUNCH_DATE":"2020-04-22","OBJECT_ID":"2020-025AQ","CLASSIFICATION_TYPE":"U","INCLINATION":"53.0522","MEAN_MOTION_DDOT":"0.0000000000000","APOAPSIS":"548.315","TLE_LINE1":"1 45569U 20025AQ  23028.63764304  .00001787  00000-0  13883-3 0  9995","SEMIMAJOR_AXIS":"6925.333","TIME_SYSTEM":"UTC","RCS_SIZE":"LARGE","PERIOD":"95.592"},{"REF_FRAME":"TEME","PERIAPSIS":"546.326","NORAD_CAT_ID":"45570","MEAN_ELEMENT_THEORY":"SGP4","MEAN_ANOMALY":"250.0791","ARG_OF_PERICENTER":"110.0333","RA_OF_ASC_NODE":"146.2890","GP_ID":"223909032","LAUNCH_DATE":"2020-04-22","OBJECT_ID":"2020-025AR","CLASSIFICATION_TYPE":"U","INCLINATION":"53.0554","MEAN_MOTION_DDOT":"0.0000000000000","APOAPSIS":"548.054","TLE_LINE1":"1 45570U 20025AR  23028.69661874  .00002031  00000-0  15519-3 0  9992","SEMIMAJOR_AXIS":"6925.325","TIME_SYSTEM":"UTC","RCS_SIZE":"LARGE","PERIOD":"95.592","EPOCH":"2023-01-28T16:43:07.859136","OBJECT_TYPE":"PAYLOAD","REV_AT_EPOCH":"15414","TLE_LINE2":"2 45570  53.0554 146.2890 0001248 110.0333 250.0791 15.06407756154141","CENTER_NAME":"EARTH","OBJECT_NAME":"STARLINK-1376","EPHEMERIS_TYPE":"0","FILE":"3764201","ECCENTRICITY":"0.00012480","MEAN_MOTION_DOT":"0.00002031","SITE":"AFETR","BSTAR":"0.00015519000000","ELEMENT_SET_NO":"999","COUNTRY_CODE":"US","MEAN_MOTION":"15.06407756","DECAY_DATE":null},{"OBJECT_NAME":"STARLINK-1261","CENTER_NAME":"EARTH","TLE_LINE2":"2 45571  53.0550 136.2128 0001367 105.6935 254.4205 15.06399464154303","OBJECT_TYPE":"PAYLOAD","REV_AT_EPOCH":"15430","EPOCH":"2023-01-28T17:05:41.435232","MEAN_MOTION_DOT":"-0.00000223","SITE":"AFETR","ECCENTRICITY":"0.00013670","EPHEMERIS_TYPE":"0","FILE":"3764201","MEAN_MOTION":"15.06399464","DECAY_DATE":null,"ELEMENT_SET_NO":"999","COUNTRY_CODE":"US","BSTAR":"0.00000389690000","ARG_OF_PERICENTER":"105.6935","MEAN_ANOMALY":"254.4205","MEAN_ELEMENT_THEORY":"SGP4","REF_FRAME":"TEME","PERIAPSIS":"546.269","NORAD_CAT_ID":"45571","LAUNCH_DATE":"2020-04-22","RA_OF_ASC_NODE":"136.2128","GP_ID":"223909770","APOAPSIS":"548.162","TLE_LINE1":"1 45571U 20025AS  23028.71228513 -.00000223  00000-0  38969-5 0  9993","MEAN_MOTION_DDOT":"0.0000000000000","INCLINATION":"53.0550","CLASSIFICATION_TYPE":"U","OBJECT_ID":"2020-025AS","RCS_SIZE":"LARGE","PERIOD":"95.592","SEMIMAJOR_AXIS":"6925.350","TIME_SYSTEM":"UTC"},{"BSTAR":"0.00006345800000","ELEMENT_SET_NO":"999","COUNTRY_CODE":"US","MEAN_MOTION":"15.06403555","DECAY_DATE":null,"FILE":"3764201","EPHEMERIS_TYPE":"0","ECCENTRICITY":"0.00013120","MEAN_MOTION_DOT":"0.00000664","SITE":"AFETR","EPOCH":"2023-01-28T16:55:04.410624","OBJECT_TYPE":"PAYLOAD","REV_AT_EPOCH":"15429","CENTER_NAME":"EARTH","TLE_LINE2":"2 45572  53.0530 136.2556 0001312  82.7083 277.4055 15.06403555154299","OBJECT_NAME":"STARLINK-1320","SEMIMAJOR_AXIS":"6925.338","TIME_SYSTEM":"UTC","RCS_SIZE":"LARGE","PERIOD":"95.592","CLASSIFICATION_TYPE":"U","OBJECT_ID":"2020-025AT","INCLINATION":"53.0530","MEAN_MOTION_DDOT":"0.0000000000000","APOAPSIS":"548.111","TLE_LINE1":"1 45572U 20025AT  23028.70491216  .00000664  00000-0  63458-4 0  9993","RA_OF_ASC_NODE":"136.2556","GP_ID":"223908535","LAUNCH_DATE":"2020-04-22","REF_FRAME":"TEME","PERIAPSIS":"546.294","NORAD_CAT_ID":"45572","MEAN_ELEMENT_THEORY":"SGP4","ARG_OF_PERICENTER":"82.7083","MEAN_ANOMALY":"277.4055"}];
